GLOBALSTAR M075         
1 37192U 10054E   24258.86499947 -.00000054  00000+0  28002-3 0  9993
2 37192  51.9949 299.8373 0000408  93.4200  76.2939 12.62264758641237
GLOBALSTAR M073         
1 37193U 10054F   24258.91079986 -.00000104  00000+0 -15714-5 0  9992
2 37193  52.0050 213.3031 0000545  73.1108 304.6772 12.62269560643128
GLOBALSTAR M083         
1 37739U 11033A   24258.76538762 -.00000057  00000+0  26025-3 0  9992
2 37739  51.9851 162.8529 0000698  50.6370 327.0075 12.62264770612074
GLOBALSTAR M088         
1 37740U 11033B   24258.92955214 -.00000084  00000+0  11019-3 0  9994
2 37740  51.9734  68.0727 0000838  76.1457  88.7595 12.62267592607637
GLOBALSTAR M091         
1 37741U 11033C   24258.78060127 -.00000090  00000+0  77513-4 0  9998
2 37741  52.0021  31.5924 0000706  70.8334  74.9223 12.62266963608404
GLOBALSTAR M085         
1 37742U 11033D   24258.69201024 -.00000069  00000+0  19384-3 0  9999
2 37742  51.9897 343.1457 0000524  81.0137  83.2922 12.62265736608901
GLOBALSTAR M081         
1 37743U 11033E   24258.95754547 -.00000072  00000+0  17712-3 0  9999
2 37743  51.9984 344.9537 0000762  82.9922  88.4728 12.62269212609087
GLOBALSTAR M089         
1 37744U 11033F   24258.83899856 -.00000053  00000+0  28326-3 0  9992
2 37744  51.9933 299.5985 0000715 118.2232  52.6648 12.62268740609910
